1 20253U 89077A   26100.52346102 -.00000361  00000-0  00000+0 0  9995
2 20253  12.4406 351.5718 0007912   0.3408 161.0060  1.00268447259883
1 20776U 90079A   26099.81610775  .00000132  00000-0  00000+0 0  9993
2 20776  13.3620 350.2779 0003040  31.9374 143.0204  1.00271382130200
1 22787U 93056A   26099.89905862  .00000130  00000-0  00000+0 0  9995
2 22787  11.8718   3.9281 0009351 347.6824 198.8127  1.00270714117860
1 23467U 95003A   26100.47683795 -.00000017  00000-0  00000+0 0  9995
2 23467   9.7018  13.4548 0003507   0.1059 169.1200  1.00270430114275
1 23967U 96042A   26100.11572390 -.00000246  00000-0  00000+0 0  9997
2 23967  11.0530  17.4499 0004131  96.5490  92.8150  1.00235764108805
1 25639U 99009B   26097.48920475 -.00000249  00000-0  00000-0 0  9991
2 25639  12.0257   9.4815 0002964 290.2119 237.8733  0.99031061 50452
1 25967U 99063A   26100.09009836 -.00000181  00000-0  00000-0 0  9991
2 25967   9.8527  27.5689 0004313 317.6543 222.6915  1.00275736 96664
1 27168U 02001A   26099.95578935  .00000103  00000-0  00000-0 0  9998
2 27168  11.0989  22.3132 0099970   6.4761 172.3938  1.00273369 32273
1 28117U 03057A   26099.89564243 -.00000098  00000-0  00000+0 0  9998
2 28117   8.9066  34.1583 0002995 326.8277 235.0054  1.00272161 81765
1 30794U 07007B   26100.44504191 -.00000267  00000-0  00000+0 0  9999
2 30794   5.1298  74.5456 0003887 313.4642  66.0858  1.00274340 70023
1 32294U 07056B   26100.52745784  .00000145  00000-0  00000+0 0  9998
2 32294   5.0815  74.2911 0003959 304.9076  34.5682  1.00275563 67516
1 35943U 09054B   26100.46368691  .00000026  00000-0  00000+0 0  9991
2 35943   0.0733  81.3090 0003964 316.2878  31.0364  1.00273366 60626
1 36582U 10021B   26100.52494448  .00000089  00000-0  00000+0 0  9993
2 36582   0.0092 211.7055 0002800 185.1972   3.9947  1.00270963 58273
1 38098U 12011A   26100.46542027 -.00000057  00000-0  00000+0 0  9994
2 38098   0.0219 124.3625 0001731 263.6705  50.2998  1.00270958  6502
1 39034U 12075A   26100.46160691  .00000101  00000-0  00000+0 0  9997
2 39034   0.0704 353.9627 0003900  28.7534  34.9095  1.00272436 48476
1 40296U 14069A   26097.89226836  .00000161  00000-0  00000-0 0  9997
2 40296  63.4492 222.2900 6674285 271.0121  19.2477  2.00583273 83821
1 44453U 19046A   26097.93222316 -.00000068  00000-0  00000-0 0  9997
2 44453  63.0652  59.7775 7054444 274.6614  14.9906  2.00615544 48932
1 45254U 20015A   26099.67380794 -.00000011  00000-0  00000-0 0  9991
2 45254  65.5100 326.2728 6880305 279.0696  14.7830  2.00602796 44911
1 52145U 22030A   26099.68191756  .00000236  00000-0  00000-0 0  9994
2 52145  62.6826 148.1272 6766189 272.9185  17.7833  2.00616074 29658
1 26635U 00080A   21013.46269075 0.00000000  00000-0  00000-0 0    09
2 26635   9.2857  29.8038 0014383 186.3086 173.6859  1.00273100    09
1 34810U 09020A   25358.93258989 0.00000000  00000-0  00000-0 0    06
2 34810   2.7881  81.1408 0004972 246.2147 113.7417  1.00270000    08
1 40614U 15022B   25359.93496764 0.00000000  00000-0  00000-0 0    00
2 40614   0.0160 108.2839 0003453 352.8976   7.0980  1.00270000    04
